[{"OBJECT_NAME":"YAOGAN-43 01F","OBJECT_ID":"2024-148F","EPOCH":"2026-03-10T00:23:08.877408","MEAN_MOTION":15.29824616,"ECCENTRICITY":0.00057048,"INCLINATION":34.9925,"RA_OF_ASC_NODE":59.8891,"ARG_OF_PERICENTER":18.4862,"MEAN_ANOMALY":341.6062,"EPHEMERIS_TYPE":0,"CLASSIFICATION_TYPE":"U","NORAD_CAT_ID":60463,"ELEMENT_SET_NO":999,"REV_AT_EPOCH":8707,"BSTAR":0.00058388219,"MEAN_MOTION_DOT":0.00017308,"MEAN_MOTION_DDOT":0},{"OBJECT_NAME":"STARLINK-35748","OBJECT_ID":"2025-244A","EPOCH":"2026-03-09T17:14:45.170304","MEAN_MOTION":15.30162555,"ECCENTRICITY":0.00019927,"INCLINATION":53.1589,"RA_OF_ASC_NODE":229.8013,"ARG_OF_PERICENTER":158.7664,"MEAN_ANOMALY":201.342,"EPHEMERIS_TYPE":0,"CLASSIFICATION_TYPE":"U","NORAD_CAT_ID":66206,"ELEMENT_SET_NO":999,"REV_AT_EPOCH":2166,"BSTAR":0.00060299912,"MEAN_MOTION_DOT":0.00017522,"MEAN_MOTION_DDOT":0}]
